NEXTSAT-1               
1 43811U 18099BF  26068.68342010  .00004546  00000+0  29857-3 0  9992
2 43811  97.4203 114.8574 0011320 323.9610  36.0854 15.08057555396886
STARLINK-34580          
1 65808U 25218T   26068.58106883  .00008720  00000+0  60789-3 0  9995
2 65808  97.6022 292.8504 0001593  85.4453 274.6956 15.05645141 24953
