[{"OBJECT_NAME":"NEXTSAT-1","OBJECT_ID":"2018-099BF","EPOCH":"2026-03-09T16:24:07.497504","MEAN_MOTION":15.08057555,"ECCENTRICITY":0.001132,"INCLINATION":97.4203,"RA_OF_ASC_NODE":114.8574,"ARG_OF_PERICENTER":323.961,"MEAN_ANOMALY":36.0854,"EPHEMERIS_TYPE":0,"CLASSIFICATION_TYPE":"U","NORAD_CAT_ID":43811,"ELEMENT_SET_NO":999,"REV_AT_EPOCH":39688,"BSTAR":0.00029857014,"MEAN_MOTION_DOT":4.546e-5,"MEAN_MOTION_DDOT":0},{"OBJECT_NAME":"STARLINK-34580","OBJECT_ID":"2025-218T","EPOCH":"2026-03-09T13:56:44.346912","MEAN_MOTION":15.05645141,"ECCENTRICITY":0.0001593,"INCLINATION":97.6022,"RA_OF_ASC_NODE":292.8504,"ARG_OF_PERICENTER":85.4453,"MEAN_ANOMALY":274.6956,"EPHEMERIS_TYPE":0,"CLASSIFICATION_TYPE":"U","NORAD_CAT_ID":65808,"ELEMENT_SET_NO":999,"REV_AT_EPOCH":2495,"BSTAR":0.00060789,"MEAN_MOTION_DOT":8.72e-5,"MEAN_MOTION_DDOT":0}]
